start=new Date('2021-09-21T00:00:00.000Z').valueOf();
sats=[{"REF_FRAME":"TEME","RA_OF_ASC_NODE":"142.7556","DECAY_DATE":null,"CLASSIFICATION_TYPE":"U","TIME_SYSTEM":"UTC","OBJECT_NAME":"STARLINK-1980","GP_ID":"185123324","OBJECT_ID":"2021-009AG","INCLINATION":"53.0545","FILE":"3121356","ECCENTRICITY":"0.00020960","BSTAR":"-0.00003210500000","LAUNCH_DATE":"2021-02-04","EPOCH":"2021-09-20T20:16:47.157600","EPHEMERIS_TYPE":"0","MEAN_MOTION_DOT":"-0.00000760","MEAN_MOTION_DDOT":"0.0000000000000","TLE_LINE2":"2 47578  53.0545 142.7556 0002096  69.3248 290.7966 15.06383342 34982","RCS_SIZE":"LARGE","REV_AT_EPOCH":"3498","COUNTRY_CODE":"US","SEMIMAJOR_AXIS":"6925.400","PERIAPSIS":"545.813","MEAN_MOTION":"15.06383342","CENTER_NAME":"EARTH","MEAN_ANOMALY":"290.7966","OBJECT_TYPE":"PAYLOAD","NORAD_CAT_ID":"47578","TLE_LINE1":"1 47578U 21009AG  21263.84499025 -.00000760  00000-0 -32105-4 0  9998","MEAN_ELEMENT_THEORY":"SGP4","APOAPSIS":"548.716","ARG_OF_PERICENTER":"69.3248","PERIOD":"95.593","SITE":"AFETR","ELEMENT_SET_NO":"999"},{"CENTER_NAME":"EARTH","MEAN_MOTION":"15.06396470","NORAD_CAT_ID":"47579","MEAN_ANOMALY":"284.5683","OBJECT_TYPE":"PAYLOAD","PERIOD":"95.592","ARG_OF_PERICENTER":"75.5521","TLE_LINE1":"1 47579U 21009AH  21263.89382087 -.00000941  00000-0 -44283-4 0  9994","APOAPSIS":"548.568","MEAN_ELEMENT_THEORY":"SGP4","ELEMENT_SET_NO":"999","SITE":"AFETR","RCS_SIZE":"LARGE","TLE_LINE2":"2 47579  53.0548 132.5376 0001940  75.5521 284.5683 15.06396470 35134","REV_AT_EPOCH":"3513","SEMIMAJOR_AXIS":"6925.359","COUNTRY_CODE":"US","PERIAPSIS":"545.881","INCLINATION":"53.0548","OBJECT_ID":"2021-009AH","FILE":"3121356","BSTAR":"-0.00004428300000","ECCENTRICITY":"0.00019400","EPOCH":"2021-09-20T21:27:06.123168","EPHEMERIS_TYPE":"0","LAUNCH_DATE":"2021-02-04","MEAN_MOTION_DOT":"-0.00000941","MEAN_MOTION_DDOT":"0.0000000000000","REF_FRAME":"TEME","CLASSIFICATION_TYPE":"U","TIME_SYSTEM":"UTC","RA_OF_ASC_NODE":"132.5376","DECAY_DATE":null,"OBJECT_NAME":"STARLINK-1981","GP_ID":"185123074"},{"ECCENTRICITY":"0.00022450","BSTAR":"-0.00000934130000","INCLINATION":"53.0530","OBJECT_ID":"2021-009AJ","FILE":"3121356","MEAN_MOTION_DOT":"-0.00000421","MEAN_MOTION_DDOT":"0.0000000000000","LAUNCH_DATE":"2021-02-04","EPOCH":"2021-09-20T20:22:05.618496","EPHEMERIS_TYPE":"0","RA_OF_ASC_NODE":"142.7398","DECAY_DATE":null,"CLASSIFICATION_TYPE":"U","TIME_SYSTEM":"UTC","REF_FRAME":"TEME","GP_ID":"185124326","OBJECT_NAME":"STARLINK-1982","MEAN_ANOMALY":"293.5406","OBJECT_TYPE":"PAYLOAD","NORAD_CAT_ID":"47580","MEAN_MOTION":"15.06390955","CENTER_NAME":"EARTH","ELEMENT_SET_NO":"999","SITE":"AFETR","TLE_LINE1":"1 47580U 21009AJ  21263.84867614 -.00000421  00000-0 -93413-5 0  9998","APOAPSIS":"548.796","MEAN_ELEMENT_THEORY":"SGP4","PERIOD":"95.593","ARG_OF_PERICENTER":"66.5818","REV_AT_EPOCH":"3498","RCS_SIZE":"LARGE","TLE_LINE2":"2 47580  53.0530 142.7398 0002245  66.5818 293.5406 15.06390955 34989","PERIAPSIS":"545.687","COUNTRY_CODE":"US","SEMIMAJOR_AXIS":"6925.376"},{"MEAN_MOTION_DDOT":"0.0000000000000","MEAN_MOTION_DOT":"0.00000663","EPHEMERIS_TYPE":"0","EPOCH":"2021-09-20T21:28:25.596480","LAUNCH_DATE":"2021-02-04","BSTAR":"0.00006340200000","ECCENTRICITY":"0.00021700","FILE":"3121356","OBJECT_ID":"2021-009AK","INCLINATION":"53.0554","GP_ID":"185124076","OBJECT_NAME":"STARLINK-1984","TIME_SYSTEM":"UTC","CLASSIFICATION_TYPE":"U","DECAY_DATE":null,"RA_OF_ASC_NODE":"122.5278","REF_FRAME":"TEME","ELEMENT_SET_NO":"999","SITE":"AFETR","PERIOD":"95.592","ARG_OF_PERICENTER":"80.1258","MEAN_ELEMENT_THEORY":"SGP4","APOAPSIS":"548.716","TLE_LINE1":"1 47581U 21009AK  21263.89474070  .00000663  00000-0  63402-4 0  9994","NORAD_CAT_ID":"47581","OBJECT_TYPE":"PAYLOAD","MEAN_ANOMALY":"279.9975","CENTER_NAME":"EARTH","MEAN_MOTION":"15.06400239","PERIAPSIS":"545.710","COUNTRY_CODE":"US","SEMIMAJOR_AXIS":"6925.348","REV_AT_EPOCH":"3527","TLE_LINE2":"2 47581  53.0554 122.5278 0002170  80.1258 279.9975 15.06400239 35275","RCS_SIZE":"LARGE"},{"RCS_SIZE":"LARGE","TLE_LINE2":"2 47582  53.0561 142.2984 0002100  71.4298 288.6919 15.06390526 35000","REV_AT_EPOCH":"3500","SEMIMAJOR_AXIS":"6925.378","COUNTRY_CODE":"US","PERIAPSIS":"545.788","CENTER_NAME":"EARTH","MEAN_MOTION":"15.06390526","MEAN_ANOMALY":"288.6919","OBJECT_TYPE":"PAYLOAD","NORAD_CAT_ID":"47582","TLE_LINE1":"1 47582U 21009AL  21263.94819694 -.00000737  00000-0 -30547-4 0  9994","APOAPSIS":"548.697","MEAN_ELEMENT_THEORY":"SGP4","PERIOD":"95.593","ARG_OF_PERICENTER":"71.4298","SITE":"AFETR","ELEMENT_SET_NO":"999","REF_FRAME":"TEME","RA_OF_ASC_NODE":"142.2984","DECAY_DATE":null,"CLASSIFICATION_TYPE":"U","TIME_SYSTEM":"UTC","OBJECT_NAME":"STARLINK-1986","GP_ID":"185122824","INCLINATION":"53.0561","OBJECT_ID":"2021-009AL","FILE":"3121356","ECCENTRICITY":"0.00021000","BSTAR":"-0.00003054700000","LAUNCH_DATE":"2021-02-04","EPOCH":"2021-09-20T22:45:24.215616","EPHEMERIS_TYPE":"0","MEAN_MOTION_DOT":"-0.00000737","MEAN_MOTION_DDOT":"0.0000000000000"},{"OBJECT_NAME":"STARLINK-1987","GP_ID":"185123575","REF_FRAME":"TEME","CLASSIFICATION_TYPE":"U","TIME_SYSTEM":"UTC","RA_OF_ASC_NODE":"142.4034","DECAY_DATE":null,"EPOCH":"2021-09-20T22:13:33.089952","EPHEMERIS_TYPE":"0","LAUNCH_DATE":"2021-02-04","MEAN_MOTION_DOT":"-0.00000381","MEAN_MOTION_DDOT":"0.0000000000000","OBJECT_ID":"2021-009AM","INCLINATION":"53.0555","FILE":"3121356","BSTAR":"-0.00000669610000","ECCENTRICITY":"0.00020720","SEMIMAJOR_AXIS":"6925.370","COUNTRY_CODE":"US","PERIAPSIS":"545.801","RCS_SIZE":"LARGE","TLE_LINE2":"2 47583  53.0555 142.4034 0002072  68.3839 291.7371 15.06392849 35003","REV_AT_EPOCH":"3500","PERIOD":"95.593","ARG_OF_PERICENTER":"68.3839","TLE_LINE1":"1 47583U 21009AM  21263.92607743 -.00000381  00000-0 -66961-5 0  9998","APOAPSIS":"548.670","MEAN_ELEMENT_THEORY":"SGP4","SITE":"AFETR","ELEMENT_SET_NO":"999","MEAN_MOTION":"15.06392849","CENTER_NAME":"EARTH","NORAD_CAT_ID":"47583","MEAN_ANOMALY":"291.7371","OBJECT_TYPE":"PAYLOAD"},{"CLASSIFICATION_TYPE":"U","TIME_SYSTEM":"UTC","RA_OF_ASC_NODE":"85.7957","DECAY_DATE":null,"REF_FRAME":"TEME","GP_ID":"185123826","OBJECT_NAME":"STARLINK-1988","BSTAR":"0.00004037800000","ECCENTRICITY":"0.00084620","INCLINATION":"53.0536","OBJECT_ID":"2021-009AN","FILE":"3121356","MEAN_MOTION_DOT":"0.00003150","MEAN_MOTION_DDOT":"0.0000000000000","EPOCH":"2021-09-20T19:10:26.776992","EPHEMERIS_TYPE":"0","LAUNCH_DATE":"2021-02-04","REV_AT_EPOCH":"3578","TLE_LINE2":"2 47584  53.0536  85.7957 0008462 301.8988  58.1202 15.62669911 35787","RCS_SIZE":"LARGE","PERIAPSIS":"374.232","SEMIMAJOR_AXIS":"6758.085","COUNTRY_CODE":"US","NORAD_CAT_ID":"47584","MEAN_ANOMALY":"58.1202","OBJECT_TYPE":"PAYLOAD","CENTER_NAME":"EARTH","MEAN_MOTION":"15.62669911","ELEMENT_SET_NO":"999","SITE":"AFETR","PERIOD":"92.150","ARG_OF_PERICENTER":"301.8988","TLE_LINE1":"1 47584U 21009AN  21263.79892103  .00003150  00000-0  40378-4 0  9998","APOAPSIS":"385.669","MEAN_ELEMENT_THEORY":"SGP4"},{"SEMIMAJOR_AXIS":"6925.362","COUNTRY_CODE":"US","PERIAPSIS":"543.926","TLE_LINE2":"2 47585  53.0548 142.2769 0004766 265.7729  94.2715 15.06395671 35007","RCS_SIZE":"LARGE","REV_AT_EPOCH":"3500","PERIOD":"95.592","ARG_OF_PERICENTER":"265.7729","TLE_LINE1":"1 47585U 21009AP  21263.95186616 -.00000873  00000-0 -39623-4 0  9994","MEAN_ELEMENT_THEORY":"SGP4","APOAPSIS":"550.527","ELEMENT_SET_NO":"999","SITE":"AFETR","MEAN_MOTION":"15.06395671","CENTER_NAME":"EARTH","NORAD_CAT_ID":"47585","MEAN_ANOMALY":"94.2715","OBJECT_TYPE":"PAYLOAD","OBJECT_NAME":"STARLINK-1989","GP_ID":"185124577","REF_FRAME":"TEME","CLASSIFICATION_TYPE":"U","TIME_SYSTEM":"UTC","RA_OF_ASC_NODE":"142.2769","DECAY_DATE":null,"EPOCH":"2021-09-20T22:50:41.236224","EPHEMERIS_TYPE":"0","LAUNCH_DATE":"2021-02-04","MEAN_MOTION_DOT":"-0.00000873","MEAN_MOTION_DDOT":"0.0000000000000","INCLINATION":"53.0548","OBJECT_ID":"2021-009AP","FILE":"3121356","BSTAR":"-0.00003962300000","ECCENTRICITY":"0.00047660"},{"OBJECT_NAME":"STARLINK-1990","GP_ID":"185123325","REF_FRAME":"TEME","CLASSIFICATION_TYPE":"U","TIME_SYSTEM":"UTC","RA_OF_ASC_NODE":"162.6476","DECAY_DATE":null,"EPOCH":"2021-09-20T20:51:17.450208","EPHEMERIS_TYPE":"0","LAUNCH_DATE":"2021-02-04","MEAN_MOTION_DOT":"-0.00000720","MEAN_MOTION_DDOT":"0.0000000000000","INCLINATION":"53.0546","OBJECT_ID":"2021-009AQ","FILE":"3121356","BSTAR":"-0.00002941500000","ECCENTRICITY":"0.00019300","COUNTRY_CODE":"US","SEMIMAJOR_AXIS":"6925.385","PERIAPSIS":"545.914","RCS_SIZE":"LARGE","TLE_LINE2":"2 47586  53.0546 162.6476 0001930  72.3688 287.7512 15.06388013 34716","REV_AT_EPOCH":"3471","ARG_OF_PERICENTER":"72.3688","PERIOD":"95.593","TLE_LINE1":"1 47586U 21009AQ  21263.86895197 -.00000720  00000-0 -29415-4 0  9995","APOAPSIS":"548.587","MEAN_ELEMENT_THEORY":"SGP4","ELEMENT_SET_NO":"999","SITE":"AFETR","MEAN_MOTION":"15.06388013","CENTER_NAME":"EARTH","NORAD_CAT_ID":"47586","MEAN_ANOMALY":"287.7512","OBJECT_TYPE":"PAYLOAD"},{"PERIAPSIS":"545.766","SEMIMAJOR_AXIS":"6925.375","COUNTRY_CODE":"US","REV_AT_EPOCH":"3513","TLE_LINE2":"2 47587  53.0552 132.6719 0002129  69.6402 290.4816 15.06391395 35137","RCS_SIZE":"LARGE","SITE":"AFETR","ELEMENT_SET_NO":"999","APOAPSIS":"548.714","MEAN_ELEMENT_THEORY":"SGP4","TLE_LINE1":"1 47587U 21009AR  21263.86434476 -.00000408  00000-0 -84801-5 0  9999","PERIOD":"95.593","ARG_OF_PERICENTER":"69.6402","OBJECT_TYPE":"PAYLOAD","MEAN_ANOMALY":"290.4816","NORAD_CAT_ID":"47587","CENTER_NAME":"EARTH","MEAN_MOTION":"15.06391395","GP_ID":"185123075","OBJECT_NAME":"STARLINK-1991","DECAY_DATE":null,"RA_OF_ASC_NODE":"132.6719","TIME_SYSTEM":"UTC","CLASSIFICATION_TYPE":"U","REF_FRAME":"TEME","MEAN_MOTION_DDOT":"0.0000000000000","MEAN_MOTION_DOT":"-0.00000408","LAUNCH_DATE":"2021-02-04","EPHEMERIS_TYPE":"0","EPOCH":"2021-09-20T20:44:39.387264","ECCENTRICITY":"0.00021290","BSTAR":"-0.00000848010000","FILE":"3121356","INCLINATION":"53.0552","OBJECT_ID":"2021-009AR"}];
